      2.10          N: GNSS NAV DATA                        RINEX VERSION / TYPE
fic2rin                                 05/23/2020 00:17:19 PGM / RUN BY / DATE
                                                            END OF HEADER
19 20  5 22  6  0  0.0-1.555443741381e-04 5.115907697473e-12 0.000000000000e+00
    9.300000000000e+01-1.112812500000e+02 4.018381667440e-09-1.088001761606e+00
   -5.491077899933e-06 9.428321383893e-03 4.932284355164e-06 5.153685102463e+03
    4.536000000000e+05-8.568167686462e-08 2.246621371609e+00 1.527369022369e-07
    9.820697451811e-01 2.980000000000e+02 1.617633754242e+00-8.119266771480e-09
   -1.932223342001e-10 1.000000000000e+00 2.106000000000e+03 0.000000000000e+00
    2.400000000000e+00 0.000000000000e+00-1.536682248116e-08 9.300000000000e+01
    4.464000000000e+05 4.000000000000e+00
32 20  5 22  6  0  0.0 2.853129990399e-04 7.503331289627e-12 0.000000000000e+00
    9.700000000000e+01-3.328125000000e+01 4.952706300097e-09-2.974278077958e+00
   -1.708045601845e-06 3.985180053860e-03 6.742775440216e-06 5.153712102890e+03
    4.536000000000e+05-5.029141902924e-08-1.005279217000e+00-1.452863216400e-07
    9.565208493785e-01 2.456562500000e+02-2.443490971058e+00-8.131052976708e-09
   -5.339508126231e-10 1.000000000000e+00 2.106000000000e+03 0.000000000000e+00
    2.400000000000e+00 0.000000000000e+00 4.656612873077e-10 9.700000000000e+01
    4.464000000000e+05 4.000000000000e+00
26 20  5 22  6  0  0.0 2.109883353114e-04 7.162270776462e-12 0.000000000000e+00
    5.300000000000e+01 9.653125000000e+01 4.833772774610e-09-1.831326592686e+00
    5.071982741356e-06 4.725562757812e-03 2.812594175339e-06 5.153621747971e+03
    4.536000000000e+05-3.725290298462e-08 1.061976744486e+00-1.676380634308e-08
    9.467581840729e-01 3.199375000000e+02 2.301185016564e-01-8.393563911342e-09
    2.342954736326e-10 1.000000000000e+00 2.106000000000e+03 0.000000000000e+00
    2.400000000000e+00 0.000000000000e+00 6.984919309616e-09 5.300000000000e+01
    4.464000000000e+05 4.000000000000e+00
18 20  5 22  6  0  0.0 1.972652971745e-04 1.170974428533e-11 0.000000000000e+00
    1.740000000000e+02-5.768750000000e+01 4.055168914062e-09 1.068275626471e+00
   -2.959743142128e-06 4.891890566796e-04 1.120753586292e-05 5.153733221054e+03
    4.536000000000e+05 4.097819328308e-08-3.067942326695e+00 0.000000000000e+00
    9.640854173645e-01 1.668125000000e+02 2.559705989343e+00-7.706392430749e-09
    3.482287908412e-10 1.000000000000e+00 2.106000000000e+03 0.000000000000e+00
    2.400000000000e+00 0.000000000000e+00-7.916241884232e-09 9.420000000000e+02
    4.464000000000e+05 4.000000000000e+00
23 20  5 22  6  0  0.0-1.122173853219e-04 3.069544618484e-12 0.000000000000e+00
    3.900000000000e+01-2.487500000000e+01 5.408439568931e-09 5.641220184493e-01
   -1.067295670509e-06 1.423689594958e-02 6.681308150291e-06 5.155133918762e+03
    4.536000000000e+05-1.285225152969e-07-1.022138129253e+00 1.136213541031e-07
    9.432033370278e-01 2.437500000000e+02-2.186980823067e+00-8.557142153604e-09
   -5.996678357152e-10 1.000000000000e+00 2.106000000000e+03 0.000000000000e+00
    2.400000000000e+00 6.300000000000e+01-2.048909664154e-08 3.900000000000e+01
    4.464000000000e+05 4.000000000000e+00
 4 20  5 22  6  0  0.0-9.252456948161e-05-5.002220859751e-12 0.000000000000e+00
    1.570000000000e+02-2.603125000000e+01 4.954134931034e-09 1.595323539629e+00
   -1.266598701477e-06 7.494473829865e-04 7.156282663345e-06 5.153677589417e+03
    4.536000000000e+05 9.313225746155e-09-9.657644845158e-01 9.499490261078e-08
    9.597071888223e-01 2.432812500000e+02-2.600937308439e+00-8.134981711784e-09
   -4.943063041274e-10 1.000000000000e+00 2.106000000000e+03 0.000000000000e+00
    2.400000000000e+00 0.000000000000e+00-4.190951585770e-09 9.250000000000e+02
    4.475400000000e+05 4.000000000000e+00
27 20  5 22  5 59 44.0-3.001918084919e-04-1.011812855722e-11 0.000000000000e+00
    1.200000000000e+01-1.026562500000e+02 4.064455015151e-09 2.595341605824e+00
   -5.338340997696e-06 8.286764961667e-03 3.803521394730e-06 5.153665719986e+03
    4.535840000000e+05-8.195638656616e-08 2.142583469830e+00-1.098960638046e-07
    9.779568446280e-01 3.160312500000e+02 5.612845410798e-01-8.000690403726e-09
   -2.303667385565e-10 1.000000000000e+00 2.106000000000e+03 0.000000000000e+00
    2.400000000000e+00 0.000000000000e+00 1.862645149231e-09 1.200000000000e+01
    4.482600000000e+05 4.000000000000e+00
22 20  5 22  5 59 44.0-7.814452983439e-04 1.364242052659e-12 0.000000000000e+00
    5.000000000000e+00 3.228125000000e+01 5.597376010321e-09 1.756263834478e+00
    1.620501279831e-06 7.195829995908e-03 6.321817636490e-06 5.153490409851e+03
    4.535840000000e+05 1.657754182816e-07-2.131380615804e+00-2.980232238770e-08
    9.304436324149e-01 2.438125000000e+02-1.160654676806e+00-8.392135280405e-09
    5.350222858257e-10 1.000000000000e+00 2.106000000000e+03 0.000000000000e+00
    2.400000000000e+00 6.300000000000e+01-1.816079020500e-08 5.000000000000e+00
    4.506600000000e+05 4.000000000000e+00
15 20  5 22  5 59 44.0-2.295542508364e-04 2.614797267597e-12 0.000000000000e+00
    4.000000000000e+00-3.315625000000e+01 5.828099906612e-09 1.771378980565e+00
   -1.801177859306e-06 1.227132033091e-02 5.889683961868e-06 5.153678306580e+03
    4.535840000000e+05-3.278255462646e-07-1.103028111491e+00-1.005828380585e-07
    9.278679647165e-01 2.532500000000e+02 8.784410961976e-01-8.620716230291e-09
   -4.053740283126e-10 1.000000000000e+00 2.106000000000e+03 0.000000000000e+00
    2.400000000000e+00 0.000000000000e+00-1.071020960808e-08 4.000000000000e+00
    4.519500000000e+05 4.000000000000e+00
15 20  5 22  7 59 44.0-2.295356243849e-04 2.614797267597e-12 0.000000000000e+00
    5.000000000000e+00-3.312500000000e+01 5.700237437769e-09 2.821584827248e+00
   -1.836568117142e-06 1.227151683997e-02 5.777925252914e-06 5.153677738190e+03
    4.607840000000e+05 3.725290298462e-09-1.103088944014e+00-1.844018697739e-07
    9.278665412972e-01 2.511250000000e+02 8.784224630101e-01-8.307488897401e-09
   -3.857303529318e-10 1.000000000000e+00 2.106000000000e+03 0.000000000000e+00
    2.400000000000e+00 0.000000000000e+00-1.071020960808e-08 5.000000000000e+00
    4.536000000000e+05 4.000000000000e+00
27 20  5 22  7 59 44.0-3.002644516528e-04-1.011812855722e-11 0.000000000000e+00
    3.700000000000e+01-9.884375000000e+01 4.042311235631e-09-2.637686493773e+00
   -5.083158612251e-06 8.285963791423e-03 3.511086106300e-06 5.153667221069e+03
    4.607840000000e+05-1.117587089539e-08 2.142526060536e+00-8.568167686462e-08
    9.779552895461e-01 3.212500000000e+02 5.613090069218e-01-7.974260731396e-09
   -2.246522148093e-10 1.000000000000e+00 2.106000000000e+03 0.000000000000e+00
    2.400000000000e+00 0.000000000000e+00 1.862645149231e-09 3.700000000000e+01
    4.536000000000e+05 4.000000000000e+00
22 20  5 22  7 59 44.0-7.814350537956e-04 1.364242052659e-12 0.000000000000e+00
    6.000000000000e+00 4.090625000000e+01 5.461298913592e-09 2.806395242038e+00
    1.864507794380e-06 7.194723351859e-03 6.496906280518e-06 5.153493482590e+03
    4.607840000000e+05 1.545995473862e-07-2.131440942156e+00 8.195638656616e-08
    9.304474857411e-01 2.358437500000e+02-1.160486710404e+00-8.370348658619e-09
    5.585946962827e-10 1.000000000000e+00 2.106000000000e+03 0.000000000000e+00
    2.400000000000e+00 6.300000000000e+01-1.816079020500e-08 6.000000000000e+00
    4.536000000000e+05 4.000000000000e+00
 2 20  5 22  8  0  0.0-4.598707892001e-04-6.139089236967e-12 0.000000000000e+00
    9.400000000000e+01-9.084375000000e+01 4.031239345871e-09 1.777467932343e+00
   -4.766508936882e-06 1.969525299501e-02 1.162476837635e-05 5.153706567764e+03
    4.608000000000e+05 1.564621925354e-07 3.121743288087e+00-4.824250936508e-07
    9.594862355273e-01 1.515937500000e+02-1.628913496317e+00-7.634246568441e-09
    2.964409193827e-10 1.000000000000e+00 2.106000000000e+03 0.000000000000e+00
    2.400000000000e+00 0.000000000000e+00-1.769512891769e-08 9.400000000000e+01
    4.536000000000e+05 4.000000000000e+00
 1 20  5 22  8  0  0.0-3.836164250970e-04-5.229594535194e-12 0.000000000000e+00
    5.700000000000e+01-5.809375000000e+01 3.709440227361e-09 1.536210618824e+00
   -3.056600689888e-06 9.886121843010e-03 1.171603798866e-05 5.153631868362e+03
    4.608000000000e+05-1.639127731323e-07-3.085296255316e+00 3.539025783539e-08
    9.805086594470e-01 1.643437500000e+02 7.781167549090e-01-7.645675615936e-09
    2.167947446570e-10 1.000000000000e+00 2.106000000000e+03 0.000000000000e+00
    2.400000000000e+00 0.000000000000e+00 5.122274160385e-09 5.700000000000e+01
    4.536000000000e+05 4.000000000000e+00
 6 20  5 22  8  0  0.0-2.758740447462e-04-6.593836587854e-12 0.000000000000e+00
    1.500000000000e+01-6.987500000000e+01 3.614436270064e-09 1.673285756120e+00
   -3.498047590256e-06 1.916827866808e-03 1.195631921291e-05 5.153548313141e+03
    4.608000000000e+05 6.891787052155e-08-3.093534700423e+00-1.676380634308e-08
    9.800717574998e-01 1.573437500000e+02-1.053543592297e+00-7.497455156244e-09
    3.414427938915e-10 1.000000000000e+00 2.106000000000e+03 0.000000000000e+00
    2.400000000000e+00 0.000000000000e+00 4.190951585770e-09 1.500000000000e+01
    4.536000000000e+05 4.000000000000e+00
 5 20  5 22  8  0  0.0-1.314328983426e-05-6.821210263297e-13 0.000000000000e+00
    5.400000000000e+01 2.721875000000e+01 4.988064915783e-09-1.819642454704e+00
    1.246109604836e-06 5.874964292161e-03 6.234273314476e-06 5.153655212402e+03
    4.608000000000e+05 8.754432201385e-08-2.076995682384e+00-5.215406417847e-08
    9.523078193974e-01 2.483125000000e+02 7.919085101910e-01-8.119266771480e-09
    6.464554988949e-10 1.000000000000e+00 2.106000000000e+03 0.000000000000e+00
    2.400000000000e+00 0.000000000000e+00-1.117587089539e-08 5.400000000000e+01
    4.536000000000e+05 4.000000000000e+00
